{
  "norad_id": 36402,
  "name": "COSMOS 2460 [GLONASS-M]",
  "history": [
    {
      "epoch": "2026-03-25T09:24:39.027168",
      "apogee_km": 19134.81781993129,
      "perigee_km": 19124.297426360918,
      "latitude_deg": -52.655111341115855,
      "longitude_deg": 89.84336351999082,
      "semi_major_axis_km": 25507.694623146104,
      "eccentricity": 0.00020622,
      "inclination_deg": 65.4675,
      "raan_deg": 317.3041,
      "arg_perigee_deg": 36.6538,
      "mean_anomaly_deg": 143.8601,
      "mean_motion_rev_day": 2.13106133
    }
  ]
}